[{"OBJECT_NAME":"STARLINK-4411","OBJECT_ID":"2022-084P","EPOCH":"2026-01-12T21:21:47.557728","MEAN_MOTION":15.05645172,"ECCENTRICITY":0.00012853,"INCLINATION":97.6027,"RA_OF_ASC_NODE":76.2301,"ARG_OF_PERICENTER":94.5817,"MEAN_ANOMALY":265.5557,"EPHEMERIS_TYPE":0,"CLASSIFICATION_TYPE":"U","NORAD_CAT_ID":53202,"ELEMENT_SET_NO":999,"REV_AT_EPOCH":19098,"BSTAR":-1.6421259e-5,"MEAN_MOTION_DOT":-2.98e-6,"MEAN_MOTION_DDOT":0},{"OBJECT_NAME":"STARLINK-4409","OBJECT_ID":"2022-084Q","EPOCH":"2026-01-12T21:17:48.275520","MEAN_MOTION":15.05646265,"ECCENTRICITY":0.00012352,"INCLINATION":97.603,"RA_OF_ASC_NODE":76.2162,"ARG_OF_PERICENTER":83.3757,"MEAN_ANOMALY":276.761,"EPHEMERIS_TYPE":0,"CLASSIFICATION_TYPE":"U","NORAD_CAT_ID":53203,"ELEMENT_SET_NO":999,"REV_AT_EPOCH":19098,"BSTAR":-2.639245e-5,"MEAN_MOTION_DOT":-4.42e-6,"MEAN_MOTION_DDOT":0},{"OBJECT_NAME":"STARLINK-4410","OBJECT_ID":"2022-084R","EPOCH":"2026-01-12T21:47:40.224480","MEAN_MOTION":15.01304108,"ECCENTRICITY":0.00030735,"INCLINATION":97.6037,"RA_OF_ASC_NODE":75.6039,"ARG_OF_PERICENTER":73.5371,"MEAN_ANOMALY":286.6191,"EPHEMERIS_TYPE":0,"CLASSIFICATION_TYPE":"U","NORAD_CAT_ID":53204,"ELEMENT_SET_NO":999,"REV_AT_EPOCH":19160,"BSTAR":0.0012290083,"MEAN_MOTION_DOT":0.00015782,"MEAN_MOTION_DDOT":0},{"OBJECT_NAME":"STARLINK-4397","OBJECT_ID":"2022-084S","EPOCH":"2026-01-12T21:09:49.557312","MEAN_MOTION":15.05641314,"ECCENTRICITY":8.512e-5,"INCLINATION":97.6035,"RA_OF_ASC_NODE":76.2159,"ARG_OF_PERICENTER":86.2972,"MEAN_ANOMALY":273.8352,"EPHEMERIS_TYPE":0,"CLASSIFICATION_TYPE":"U","NORAD_CAT_ID":53205,"ELEMENT_SET_NO":999,"REV_AT_EPOCH":19098,"BSTAR":-2.3826173e-5,"MEAN_MOTION_DOT":-4.04e-6,"MEAN_MOTION_DDOT":0},{"OBJECT_NAME":"STARLINK-4408","OBJECT_ID":"2022-084T","EPOCH":"2026-01-12T21:29:45.635712","MEAN_MOTION":15.05645186,"ECCENTRICITY":6.608e-5,"INCLINATION":97.604,"RA_OF_ASC_NODE":76.2067,"ARG_OF_PERICENTER":120.0039,"MEAN_ANOMALY":240.1254,"EPHEMERIS_TYPE":0,"CLASSIFICATION_TYPE":"U","NORAD_CAT_ID":53206,"ELEMENT_SET_NO":999,"REV_AT_EPOCH":19098,"BSTAR":-6.496823e-6,"MEAN_MOTION_DOT":-1.54e-6,"MEAN_MOTION_DDOT":0},{"OBJECT_NAME":"STARLINK-4413","OBJECT_ID":"2022-084U","EPOCH":"2026-01-12T18:22:01.608960","MEAN_MOTION":15.01259184,"ECCENTRICITY":0.00021347,"INCLINATION":97.6027,"RA_OF_ASC_NODE":75.4469,"ARG_OF_PERICENTER":52.7303,"MEAN_ANOMALY":307.4116,"EPHEMERIS_TYPE":0,"CLASSIFICATION_TYPE":"U","NORAD_CAT_ID":53207,"ELEMENT_SET_NO":999,"REV_AT_EPOCH":19092,"BSTAR":-4.7145249e-5,"MEAN_MOTION_DOT":-6.64e-6,"MEAN_MOTION_DDOT":0},{"OBJECT_NAME":"STARLINK-4425","OBJECT_ID":"2022-084V","EPOCH":"2026-01-12T21:44:39.054912","MEAN_MOTION":15.01258751,"ECCENTRICITY":0.00035877,"INCLINATION":97.6029,"RA_OF_ASC_NODE":75.5978,"ARG_OF_PERICENTER":73.6009,"MEAN_ANOMALY":286.561,"EPHEMERIS_TYPE":0,"CLASSIFICATION_TYPE":"U","NORAD_CAT_ID":53208,"ELEMENT_SET_NO":999,"REV_AT_EPOCH":19094,"BSTAR":4.3562931e-5,"MEAN_MOTION_DOT":5.01e-6,"MEAN_MOTION_DDOT":0},{"OBJECT_NAME":"STARLINK-4423","OBJECT_ID":"2022-084W","EPOCH":"2026-01-12T16:43:43.976928","MEAN_MOTION":15.01257308,"ECCENTRICITY":0.0002042,"INCLINATION":97.6027,"RA_OF_ASC_NODE":75.3848,"ARG_OF_PERICENTER":60.9576,"MEAN_ANOMALY":299.1853,"EPHEMERIS_TYPE":0,"CLASSIFICATION_TYPE":"U","NORAD_CAT_ID":53209,"ELEMENT_SET_NO":999,"REV_AT_EPOCH":19091,"BSTAR":1.8495864e-5,"MEAN_MOTION_DOT":1.79e-6,"MEAN_MOTION_DDOT":0},{"OBJECT_NAME":"STARLINK-4427","OBJECT_ID":"2022-084X","EPOCH":"2026-01-12T21:39:19.044864","MEAN_MOTION":15.01260306,"ECCENTRICITY":0.0002829,"INCLINATION":97.6022,"RA_OF_ASC_NODE":75.5915,"ARG_OF_PERICENTER":36.1692,"MEAN_ANOMALY":323.9724,"EPHEMERIS_TYPE":0,"CLASSIFICATION_TYPE":"U","NORAD_CAT_ID":53210,"ELEMENT_SET_NO":999,"REV_AT_EPOCH":19148,"BSTAR":-2.88278e-6,"MEAN_MOTION_DOT":-9.5e-7,"MEAN_MOTION_DDOT":0},{"OBJECT_NAME":"STARLINK-4416","OBJECT_ID":"2022-084Z","EPOCH":"2026-01-12T18:02:25.304064","MEAN_MOTION":15.05641796,"ECCENTRICITY":0.0001567,"INCLINATION":97.6028,"RA_OF_ASC_NODE":76.0723,"ARG_OF_PERICENTER":88.8174,"MEAN_ANOMALY":271.3232,"EPHEMERIS_TYPE":0,"CLASSIFICATION_TYPE":"U","NORAD_CAT_ID":53212,"ELEMENT_SET_NO":999,"REV_AT_EPOCH":19095,"BSTAR":-4.9195536e-5,"MEAN_MOTION_DOT":-7.7e-6,"MEAN_MOTION_DDOT":0},{"OBJECT_NAME":"STARLINK-4414","OBJECT_ID":"2022-084AA","EPOCH":"2026-01-12T21:17:59.045280","MEAN_MOTION":15.01260508,"ECCENTRICITY":0.00012815,"INCLINATION":97.6039,"RA_OF_ASC_NODE":75.5665,"ARG_OF_PERICENTER":93.5325,"MEAN_ANOMALY":266.6046,"EPHEMERIS_TYPE":0,"CLASSIFICATION_TYPE":"U","NORAD_CAT_ID":53213,"ELEMENT_SET_NO":999,"REV_AT_EPOCH":19146,"BSTAR":-7.046936e-6,"MEAN_MOTION_DOT":-1.49e-6,"MEAN_MOTION_DDOT":0},{"OBJECT_NAME":"STARLINK-4353","OBJECT_ID":"2022-084AB","EPOCH":"2026-01-12T21:28:39.280512","MEAN_MOTION":15.01259678,"ECCENTRICITY":0.00023938,"INCLINATION":97.603,"RA_OF_ASC_NODE":75.5763,"ARG_OF_PERICENTER":55.8195,"MEAN_ANOMALY":304.3256,"EPHEMERIS_TYPE":0,"CLASSIFICATION_TYPE":"U","NORAD_CAT_ID":53214,"ELEMENT_SET_NO":999,"REV_AT_EPOCH":19094,"BSTAR":7.233041e-6,"MEAN_MOTION_DOT":3.5e-7,"MEAN_MOTION_DDOT":0},{"OBJECT_NAME":"STARLINK-4335","OBJECT_ID":"2022-084AC","EPOCH":"2026-01-12T17:38:30.026400","MEAN_MOTION":15.05642477,"ECCENTRICITY":0.00010239,"INCLINATION":97.6041,"RA_OF_ASC_NODE":76.0687,"ARG_OF_PERICENTER":67.5938,"MEAN_ANOMALY":292.5397,"EPHEMERIS_TYPE":0,"CLASSIFICATION_TYPE":"U","NORAD_CAT_ID":53215,"ELEMENT_SET_NO":999,"REV_AT_EPOCH":19148,"BSTAR":-2.7439188e-5,"MEAN_MOTION_DOT":-4.57e-6,"MEAN_MOTION_DDOT":0},{"OBJECT_NAME":"STARLINK-4376","OBJECT_ID":"2022-084AD","EPOCH":"2026-01-12T21:23:18.339936","MEAN_MOTION":15.01267806,"ECCENTRICITY":0.00019717,"INCLINATION":97.6036,"RA_OF_ASC_NODE":75.5709,"ARG_OF_PERICENTER":90.3302,"MEAN_ANOMALY":269.8148,"EPHEMERIS_TYPE":0,"CLASSIFICATION_TYPE":"U","NORAD_CAT_ID":53216,"ELEMENT_SET_NO":999,"REV_AT_EPOCH":19094,"BSTAR":9.1467732e-5,"MEAN_MOTION_DOT":1.117e-5,"MEAN_MOTION_DDOT":0},{"OBJECT_NAME":"STARLINK-4384","OBJECT_ID":"2022-084AF","EPOCH":"2026-01-12T21:53:41.521632","MEAN_MOTION":15.05641651,"ECCENTRICITY":7.713e-5,"INCLINATION":97.6048,"RA_OF_ASC_NODE":76.3025,"ARG_OF_PERICENTER":100.523,"MEAN_ANOMALY":259.6084,"EPHEMERIS_TYPE":0,"CLASSIFICATION_TYPE":"U","NORAD_CAT_ID":53218,"ELEMENT_SET_NO":999,"REV_AT_EPOCH":19151,"BSTAR":-4.3112059e-5,"MEAN_MOTION_DOT":-6.83e-6,"MEAN_MOTION_DDOT":0},{"OBJECT_NAME":"STARLINK-4373","OBJECT_ID":"2022-084AG","EPOCH":"2026-01-12T17:46:27.698304","MEAN_MOTION":15.05644996,"ECCENTRICITY":5.22e-5,"INCLINATION":97.603,"RA_OF_ASC_NODE":76.0446,"ARG_OF_PERICENTER":108.5025,"MEAN_ANOMALY":251.6258,"EPHEMERIS_TYPE":0,"CLASSIFICATION_TYPE":"U","NORAD_CAT_ID":53219,"ELEMENT_SET_NO":999,"REV_AT_EPOCH":19096,"BSTAR":-1.3344756e-5,"MEAN_MOTION_DOT":-2.53e-6,"MEAN_MOTION_DDOT":0}]
