STARLINK-4411           
1 53202U 22084P   26012.89013377 -.00000298  00000+0 -16421-4 0  9995
2 53202  97.6027  76.2301 0001285  94.5817 265.5557 15.05645172190982
STARLINK-4409           
1 53203U 22084Q   26012.88736430 -.00000442  00000+0 -26392-4 0  9996
2 53203  97.6030  76.2162 0001235  83.3757 276.7610 15.05646265190984
STARLINK-4410           
1 53204U 22084R   26012.90810445  .00015782  00000+0  12290-2 0  9990
2 53204  97.6037  75.6039 0003073  73.5371 286.6191 15.01304108191600
STARLINK-4397           
1 53205U 22084S   26012.88182358 -.00000404  00000+0 -23826-4 0  9999
2 53205  97.6035  76.2159 0000851  86.2972 273.8352 15.05641314190982
STARLINK-4408           
1 53206U 22084T   26012.89566708 -.00000154  00000+0 -64968-5 0  9991
2 53206  97.6040  76.2067 0000660 120.0039 240.1254 15.05645186190985
STARLINK-4413           
1 53207U 22084U   26012.76529640 -.00000664  00000+0 -47145-4 0  9995
2 53207  97.6027  75.4469 0002134  52.7303 307.4116 15.01259184190924
STARLINK-4425           
1 53208U 22084V   26012.90600758  .00000501  00000+0  43563-4 0  9990
2 53208  97.6029  75.5978 0003587  73.6009 286.5610 15.01258751190948
STARLINK-4423           
1 53209U 22084W   26012.69703677  .00000179  00000+0  18496-4 0  9999
2 53209  97.6027  75.3848 0002042  60.9576 299.1853 15.01257308190917
STARLINK-4427           
1 53210U 22084X   26012.90230376 -.00000095  00000+0 -28828-5 0  9996
2 53210  97.6022  75.5915 0002829  36.1692 323.9724 15.01260306191486
STARLINK-4416           
1 53212U 22084Z   26012.75168176 -.00000770  00000+0 -49196-4 0  9999
2 53212  97.6028  76.0723 0001567  88.8174 271.3232 15.05641796190955
STARLINK-4414           
1 53213U 22084AA  26012.88748895 -.00000149  00000+0 -70469-5 0  9994
2 53213  97.6039  75.5665 0001281  93.5325 266.6046 15.01260508191462
STARLINK-4353           
1 53214U 22084AB  26012.89489908  .00000035  00000+0  72330-5 0  9994
2 53214  97.6030  75.5763 0002393  55.8195 304.3256 15.01259678190945
STARLINK-4335           
1 53215U 22084AC  26012.73506975 -.00000457  00000+0 -27439-4 0  9991
2 53215  97.6041  76.0687 0001023  67.5938 292.5397 15.05642477191484
STARLINK-4376           
1 53216U 22084AD  26012.89118449  .00001117  00000+0  91468-4 0  9999
2 53216  97.6036  75.5709 0001971  90.3302 269.8148 15.01267806190945
STARLINK-4384           
1 53218U 22084AF  26012.91228613 -.00000683  00000+0 -43112-4 0  9991
2 53218  97.6048  76.3025 0000771 100.5230 259.6084 15.05641651191519
STARLINK-4373           
1 53219U 22084AG  26012.74059836 -.00000253  00000+0 -13345-4 0  9990
2 53219  97.6030  76.0446 0000522 108.5025 251.6258 15.05644996190967
